{
  "norad_id": 44634,
  "name": "PALISADE",
  "history": [
    {
      "epoch": "2026-03-28T19:34:38.030880Z",
      "apogee_km": 1221.6109172559227,
      "perigee_km": 1210.0085816542341,
      "latitude_deg": 2.2995269609784193e-06,
      "longitude_deg": 175.90899389142217,
      "height_km": 1217.1419840815042,
      "semi_major_axis_km": 7593.946749455078,
      "eccentricity": 0.00076392,
      "inclination_deg": 87.8836,
      "raan_deg": 295.7982,
      "arg_perigee_deg": 285.6421,
      "mean_anomaly_deg": 74.3864,
      "mean_motion_rev_day": 13.11902141
    },
    {
      "epoch": "2026-03-29T01:04:06.871008Z",
      "apogee_km": 1221.6098901238702,
      "perigee_km": 1210.0093772462524,
      "latitude_deg": -2.415453019465064e-05,
      "longitude_deg": 93.26760416527043,
      "height_km": 1217.2119675987435,
      "semi_major_axis_km": 7593.946633685061,
      "eccentricity": 0.0007638,
      "inclination_deg": 87.8835,
      "raan_deg": 295.7525,
      "arg_perigee_deg": 284.927,
      "mean_anomaly_deg": 75.1012,
      "mean_motion_rev_day": 13.11902171
    },
    {
      "epoch": "2026-03-30T00:51:51.837696Z",
      "apogee_km": 1221.5979430842963,
      "perigee_km": 1210.0202128937935,
      "latitude_deg": 3.6691116797784665e-05,
      "longitude_deg": 95.15518596019547,
      "height_km": 1217.5311756535243,
      "semi_major_axis_km": 7593.946077989044,
      "eccentricity": 0.0007623,
      "inclination_deg": 87.8834,
      "raan_deg": 295.5547,
      "arg_perigee_deg": 281.705,
      "mean_anomaly_deg": 78.3223,
      "mean_motion_rev_day": 13.11902315
    },
    {
      "epoch": "2026-03-30T00:51:51.838560Z",
      "apogee_km": 1221.5977152659134,
      "perigee_km": 1210.0204407121764,
      "latitude_deg": 3.330618968788397e-05,
      "longitude_deg": 95.15518222587131,
      "height_km": 1217.531221880665,
      "semi_major_axis_km": 7593.946077989044,
      "eccentricity": 0.00076227,
      "inclination_deg": 87.8834,
      "raan_deg": 295.5547,
      "arg_perigee_deg": 281.705,
      "mean_anomaly_deg": 78.3223,
      "mean_motion_rev_day": 13.11902315
    },
    {
      "epoch": "2026-03-30T13:40:39.116352Z",
      "apogee_km": 1221.5915988191255,
      "perigee_km": 1210.0252605351843,
      "latitude_deg": -4.687305074232416e-05,
      "longitude_deg": -97.67462756804547,
      "height_km": 1217.7062594789127,
      "semi_major_axis_km": 7593.945429677155,
      "eccentricity": 0.00076155,
      "inclination_deg": 87.8833,
      "raan_deg": 295.4481,
      "arg_perigee_deg": 279.9445,
      "mean_anomaly_deg": 80.0823,
      "mean_motion_rev_day": 13.11902483
    },
    {
      "epoch": "2026-03-31T02:29:26.377728Z",
      "apogee_km": 1221.5849224287558,
      "perigee_km": 1210.0299765544105,
      "latitude_deg": 8.615137224346993e-05,
      "longitude_deg": 69.49563909125499,
      "height_km": 1217.8804331395402,
      "semi_major_axis_km": 7593.944449491583,
      "eccentricity": 0.0007608,
      "inclination_deg": 87.8833,
      "raan_deg": 295.3415,
      "arg_perigee_deg": 278.1957,
      "mean_anomaly_deg": 81.8309,
      "mean_motion_rev_day": 13.11902737
    },
    {
      "epoch": "2026-04-01T00:27:21.631104Z",
      "apogee_km": 1221.5730999922898,
      "perigee_km": 1210.0374460430394,
      "latitude_deg": -2.5247075461393635e-05,
      "longitude_deg": 98.9306290815843,
      "height_km": 1218.1842159109358,
      "semi_major_axis_km": 7593.942273017664,
      "eccentricity": 0.00075953,
      "inclination_deg": 87.8832,
      "raan_deg": 295.1588,
      "arg_perigee_deg": 275.1498,
      "mean_anomaly_deg": 84.8763,
      "mean_motion_rev_day": 13.11903301
    },
    {
      "epoch": "2026-04-02T07:34:24.764160Z",
      "apogee_km": 1221.5676794331775,
      "perigee_km": 1210.0358277994856,
      "latitude_deg": 8.172181672662216e-05,
      "longitude_deg": -9.369171787457486,
      "height_km": 1218.610252381195,
      "semi_major_axis_km": 7593.938753616331,
      "eccentricity": 0.00075928,
      "inclination_deg": 87.8831,
      "raan_deg": 294.9,
      "arg_perigee_deg": 270.877,
      "mean_anomaly_deg": 89.1489,
      "mean_motion_rev_day": 13.11904213
    },
    {
      "epoch": "2026-04-03T14:41:27.747744Z",
      "apogee_km": 1221.5472448297587,
      "perigee_km": 1210.0500262775304,
      "latitude_deg": -3.20659433378538e-05,
      "longitude_deg": -117.66855726819996,
      "height_km": 1219.0401155527734,
      "semi_major_axis_km": 7593.935635553645,
      "eccentricity": 0.000757,
      "inclination_deg": 87.8829,
      "raan_deg": 294.641,
      "arg_perigee_deg": 266.5628,
      "mean_anomaly_deg": 93.4634,
      "mean_motion_rev_day": 13.11905021
    },
    {
      "epoch": "2026-04-04T14:29:12.296256Z",
      "apogee_km": 1221.5534098584358,
      "perigee_km": 1210.041005599518,
      "latitude_deg": 3.83746421024958e-05,
      "longitude_deg": -115.77942907917819,
      "height_km": 1219.3672001712814,
      "semi_major_axis_km": 7593.934207728977,
      "eccentricity": 0.000758,
      "inclination_deg": 87.8828,
      "raan_deg": 294.443,
      "arg_perigee_deg": 263.2846,
      "mean_anomaly_deg": 96.742,
      "mean_motion_rev_day": 13.11905391
    },
    {
      "epoch": "2026-04-05T14:16:56.803296Z",
      "apogee_km": 1221.5605416271083,
      "perigee_km": 1210.0326466738425,
      "latitude_deg": 2.19047738467197e-05,
      "longitude_deg": -113.8901316534824,
      "height_km": 1219.695591377811,
      "semi_major_axis_km": 7593.933594150475,
      "eccentricity": 0.00075902,
      "inclination_deg": 87.8827,
      "raan_deg": 294.245,
      "arg_perigee_deg": 259.9881,
      "mean_anomaly_deg": 100.0391,
      "mean_motion_rev_day": 13.1190555
    },
    {
      "epoch": "2026-04-05T19:46:25.536288Z",
      "apogee_km": 1221.5650001754057,
      "perigee_km": 1210.0282961770963,
      "latitude_deg": -2.6591945115574547e-05,
      "longitude_deg": 163.46892507081313,
      "height_km": 1219.7731954388382,
      "semi_major_axis_km": 7593.93364817625,
      "eccentricity": 0.0007596,
      "inclination_deg": 87.8828,
      "raan_deg": 294.1993,
      "arg_perigee_deg": 259.2128,
      "mean_anomaly_deg": 100.8145,
      "mean_motion_rev_day": 13.11905536
    },
    {
      "epoch": "2026-04-06T01:15:54.265824Z",
      "apogee_km": 1221.5695990166869,
      "perigee_km": 1210.0237822334611,
      "latitude_deg": 3.783477183371495e-06,
      "longitude_deg": 80.82799909929128,
      "height_km": 1219.8532316063383,
      "semi_major_axis_km": 7593.933690625074,
      "eccentricity": 0.0007602,
      "inclination_deg": 87.8828,
      "raan_deg": 294.1536,
      "arg_perigee_deg": 258.4122,
      "mean_anomaly_deg": 101.6153,
      "mean_motion_rev_day": 13.11905525
    },
    {
      "epoch": "2026-04-07T12:02:36.299328Z",
      "apogee_km": 1221.5926423805486,
      "perigee_km": 1210.004296853912,
      "latitude_deg": -2.3479491695181183e-05,
      "longitude_deg": -82.56484110540046,
      "height_km": 1220.322217261536,
      "semi_major_axis_km": 7593.9354696172295,
      "eccentricity": 0.000763,
      "inclination_deg": 87.8826,
      "raan_deg": 293.8642,
      "arg_perigee_deg": 253.6945,
      "mean_anomaly_deg": 106.3344,
      "mean_motion_rev_day": 13.11905064
    },
    {
      "epoch": "2026-04-07T19:21:54.639360Z",
      "apogee_km": 1221.598587630585,
      "perigee_km": 1209.9996096335335,
      "latitude_deg": 1.7139000490666112e-06,
      "longitude_deg": 167.2470480823419,
      "height_km": 1220.4231158269647,
      "semi_major_axis_km": 7593.936098632059,
      "eccentricity": 0.0007637,
      "inclination_deg": 87.8827,
      "raan_deg": 293.8032,
      "arg_perigee_deg": 252.6751,
      "mean_anomaly_deg": 107.3542,
      "mean_motion_rev_day": 13.11904901
    },
    {
      "epoch": "2026-04-08T13:40:10.527456Z",
      "apogee_km": 1221.615652370555,
      "perigee_km": 1209.9858404694223,
      "latitude_deg": -2.9560087005905944e-05,
      "longitude_deg": -108.22319133801837,
      "height_km": 1220.6753530607664,
      "semi_major_axis_km": 7593.937746419989,
      "eccentricity": 0.00076573,
      "inclination_deg": 87.8827,
      "raan_deg": 293.6509,
      "arg_perigee_deg": 250.1175,
      "mean_anomaly_deg": 109.9128,
      "mean_motion_rev_day": 13.11904474
    },
    {
      "epoch": "2026-04-09T11:38:05.672832Z",
      "apogee_km": 1221.6381256371988,
      "perigee_km": 1209.9677587340493,
      "latitude_deg": -2.7223792649946795e-05,
      "longitude_deg": -78.78784995404065,
      "height_km": 1220.9689446708949,
      "semi_major_axis_km": 7593.939942185624,
      "eccentricity": 0.0007684,
      "inclination_deg": 87.8827,
      "raan_deg": 293.4681,
      "arg_perigee_deg": 247.1172,
      "mean_anomaly_deg": 112.9145,
      "mean_motion_rev_day": 13.11903905
    },
    {
      "epoch": "2026-04-10T11:25:50.505600Z",
      "apogee_km": 1221.6622721463973,
      "perigee_km": 1209.947857117495,
      "latitude_deg": -1.0389506260292133e-06,
      "longitude_deg": -76.90001306749257,
      "height_km": 1221.2813181418094,
      "semi_major_axis_km": 7593.942064631946,
      "eccentricity": 0.0007713,
      "inclination_deg": 87.8826,
      "raan_deg": 293.27,
      "arg_perigee_deg": 243.8734,
      "mean_anomaly_deg": 116.1601,
      "mean_motion_rev_day": 13.11903355
    },
    {
      "epoch": "2026-04-11T18:32:53.875392Z",
      "apogee_km": 1221.7052567740639,
      "perigee_km": 1209.908824101647,
      "latitude_deg": 4.4326729592032035e-05,
      "longitude_deg": 174.79909081565748,
      "height_km": 1221.6843086735087,
      "semi_major_axis_km": 7593.944040437855,
      "eccentricity": 0.0007767,
      "inclination_deg": 87.8825,
      "raan_deg": 293.0111,
      "arg_perigee_deg": 239.6495,
      "mean_anomaly_deg": 120.3866,
      "mean_motion_rev_day": 13.11902843
    }
  ]
}